STARLINK-1407
1 25703C 20035AY  21325.09807426  .00005527  00000-0  37033-3 0  3259
2 25703  53.0534 242.7990 0001879  65.7713  12.6411 15.06392255    12
